2023-007M               
1 55259U 23007M   23028.44792145  .00014210  00000+0  55300-3 0  9992
2 55259  97.3718 102.7193 0007670 240.9513 242.4770 15.26090552  2025
2023-007N               
1 55260U 23007N   23028.44197938  .00020641  00000+0  78257-3 0  9994
2 55260  97.3723 102.7285 0007780 261.8270 222.3142 15.26876924  2024
2023-007P               
1 55261U 23007P   23028.49480650  .00017495  00000+0  66279-3 0  9990
2 55261  97.3718 102.7809 0008538 263.8680 155.2119 15.26931448  2032
USA 342                 
1 55263U 23008A   23027.74773682  .00000010  00000+0  00000+0 0  9991
2 55263   0.0554  31.1616 0001977 240.6176 315.2053  1.02190215   117
NAVSTAR 82 (USA 343)    
1 55268U 23009A   23019.56958773  .00000203  00000+0  00000+0 0  9998
2 55268  55.0137 201.7698 5934866 270.2550  26.1276  4.03893074    40
STARLINK-5277           
1 55269U 23010A   23027.91667824 -.00918676  24975-3 -32714-2 0  9998
2 55269  70.0001  45.7718 0011416 192.3546 218.1368 15.88583496  1302
STARLINK-5301           
1 55270U 23010B   23027.91667824 -.00918800  24974-3 -32780-2 0  9991
2 55270  70.0001  45.7720 0010983 194.6001 215.1985 15.88554231  1303
STARLINK-5306           
1 55271U 23010C   23027.91667824 -.00918412  24959-3 -32717-2 0  9994
2 55271  70.0001  45.7719 0011516 191.6114 218.6384 15.88573834  1308
STARLINK-5310           
1 55272U 23010D   23027.91667824 -.00919380  25004-3 -32787-2 0  9999
2 55272  70.0001  45.7728 0011164 193.6853 215.3445 15.88559186  1306
STARLINK-5291           
1 55273U 23010E   23027.91667824 -.00918456  24967-3 -32692-2 0  9995
2 55273  70.0002  45.7708 0011055 194.2164 216.8706 15.88599269  1309
STARLINK-5236           
1 55274U 23010F   23027.91667824 -.00918446  24969-3 -32667-2 0  9999
2 55274  70.0002  45.7699 0011365 192.4722 218.8731 15.88608333  1812
STARLINK-5260           
1 55275U 23010G   23027.91667824 -.00918178  24958-3 -32657-2 0  9999
2 55275  70.0002  45.7701 0010896 194.9865 216.5950 15.88617736  1309
STARLINK-5261           
1 55276U 23010H   23027.91667824 -.00918090  24960-3 -32610-2 0  9995
2 55276  70.0002  45.7686 0010869 195.6403 216.6954 15.88645233  1306
STARLINK-5299           
1 55277U 23010J   23027.91667824 -.00917861  24944-3 -32631-2 0  9996
2 55277  70.0001  45.7698 0010883 194.9416 216.8815 15.88626981  1308
STARLINK-5289           
1 55278U 23010K   23027.91667824 -.00917425  24933-3 -32529-2 0  9997
2 55278  70.0002  45.7679 0011249 192.5807 220.4813 15.88673134  1305
STARLINK-5323           
1 55279U 23010L   23027.91667824 -.00917999  24953-3 -32623-2 0  9991
2 55279  70.0002  45.7693 0010828 195.6337 216.4523 15.88635995  1302
STARLINK-5331           
1 55280U 23010M   23027.91667824 -.00917784  24953-3 -32535-2 0  9997
2 55280  70.0001  45.7673 0011064 194.5312 218.8392 15.88680967  1304
STARLINK-5298           
1 55281U 23010N   23027.91667824 -.00917840  24950-3 -32591-2 0  9990
2 55281  70.0001  45.7687 0010756 195.8650 216.7481 15.88653575  1307
STARLINK-5330           
1 55282U 23010P   23027.91667824 -.00916300  24885-3 -32434-2 0  9994
2 55282  70.0000  45.7666 0011224 193.2416 220.8817 15.88707529  1305
STARLINK-5317           
1 55283U 23010Q   23027.91667824 -.00917444  24932-3 -32554-2 0  9991
2 55283  70.0001  45.7683 0011023 193.2534 219.6109 15.88662559  1307
STARLINK-5337           
1 55284U 23010R   23027.91667824 -.00917162  24932-3 -32446-2 0  9999
2 55284  70.0002  45.7656 0010950 194.3329 220.3692 15.88724431  1305
STARLINK-5332           
1 55285U 23010S   23028.33334491 -.00941012  26425-3 -31520-2 0  9990
2 55285  70.0000  44.5036 0011305 191.8542 133.5212 15.89810143  1880
STARLINK-5338           
1 55286U 23010T   23027.91667824 -.00917210  24933-3 -32446-2 0  9996
2 55286  70.0000  45.7661 0011351 193.6177 220.7419 15.88717642  1307
STARLINK-5341           
1 55287U 23010U   23027.91667824 -.00917279  24932-3 -32473-2 0  9991
2 55287  70.0001  45.7669 0011540 191.3477 222.5387 15.88698671  1309
STARLINK-5311           
1 55288U 23010V   23027.91667824 -.00915575  24868-3 -32286-2 0  9999
2 55288  69.9999  45.7637 0010936 194.6866 221.7142 15.88788880  1306
STARLINK-5320           
1 55289U 23010W   23027.91667824 -.00917159  24937-3 -32419-2 0  9995
2 55289  70.0002  45.7653 0010764 195.6777 219.4544 15.88744617  1304
STARLINK-5266           
1 55290U 23010X   23027.91667824 -.00916452  24906-3 -32362-2 0  9995
2 55290  70.0000  45.7644 0010853 194.6818 220.9445 15.88762644  1305
STARLINK-5327           
1 55291U 23010Y   23027.91667824 -.00916885  24926-3 -32386-2 0  9994
2 55291  70.0001  45.7648 0011018 193.8772 221.4845 15.88754151  1309
STARLINK-5325           
1 55292U 23010Z   23027.91667824 -.00915550  24869-3 -32275-2 0  9996
2 55292  70.0000  45.7632 0010788 195.6862 220.9661 15.88797969  1309
STARLINK-5287           
1 55293U 23010AA  23027.91667824 -.00915479  24861-3 -32291-2 0  9997
2 55293  69.9999  45.7643 0011112 193.5809 222.5483 15.88780247  1307
STARLINK-5286           
1 55294U 23010AB  23027.91667824 -.00917322  24933-3 -32497-2 0  9995
2 55294  70.0002  45.7668 0011107 193.1233 220.3667 15.88693401  1309
STARLINK-5293           
1 55295U 23010AC  23027.91667824 -.00918594  24967-3 -32747-2 0  9993
2 55295  70.0001  45.7716 0010990 193.7091 216.0995 15.88569788  1306
STARLINK-5285           
1 55296U 23010AD  23027.91667824 -.00915106  24855-3 -32199-2 0  9997
2 55296  70.0000  45.7616 0010863 195.0058 222.6599 15.88834016  1304
STARLINK-5284           
1 55297U 23010AE  23027.91667824 -.00916207  24905-3 -32274-2 0  9991
2 55297  70.0000  45.7631 0011038 193.9378 222.9379 15.88808283  1305
STARLINK-5272           
1 55298U 23010AF  23027.91667824 -.00915309  24868-3 -32195-2 0  9994
2 55298  69.9999  45.7613 0010705 195.5989 222.2894 15.88843967  1309
STARLINK-5270           
1 55299U 23010AG  23027.91667824 -.00915072  24849-3 -32219-2 0  9998
2 55299  69.9999  45.7629 0011126 193.3131 223.8478 15.88815735  1307
STARLINK-5308           
1 55300U 23010AH  23027.91667824 -.00914750  24842-3 -32163-2 0  9994
2 55300  70.0000  45.7609 0010638 195.8876 222.2496 15.88852825  1308
STARLINK-5319           
1 55301U 23010AJ  23028.33334491  .01341268  40778-5  74552-3 0  9997
2 55301  69.9911  44.1233 0059122 147.6511 128.9560 16.14853395  1896
STARLINK-5321           
1 55302U 23010AK  23027.91667824 -.00914505  24832-3 -32128-2 0  9994
2 55302  70.0001  45.7606 0011091 193.0447 225.3886 15.88860590  1301
STARLINK-5322           
1 55303U 23010AL  23027.91667824 -.00917327  24944-3 -32428-2 0  9997
2 55303  70.0002  45.7655 0010950 194.6874 220.0573 15.88739196  1303
STARLINK-5318           
1 55304U 23010AM  23027.91667824 -.00915536  24886-3 -32156-2 0  9991
2 55304  70.0000  45.7602 0010858 195.1271 223.5510 15.88870360  1306
STARLINK-5316           
1 55305U 23010AN  23027.91667824 -.00918315  24960-3 -32686-2 0  9991
2 55305  70.0001  45.7705 0011053 193.9966 216.4670 15.88599889  1309
STARLINK-5295           
1 55306U 23010AP  23027.91667824 -.00914351  24830-3 -32087-2 0  9999
2 55306  70.0001  45.7595 0010846 194.8771 224.3176 15.88887501  1300
STARLINK-5288           
1 55307U 23010AQ  23027.91667824 -.00914815  24852-3 -32100-2 0  9995
2 55307  70.0000  45.7604 0011395 191.9078 227.0288 15.88878882  1305
STARLINK-5292           
1 55308U 23010AR  23027.91667824 -.00914528  24848-3 -32021-2 0  9994
2 55308  70.0000  45.7584 0011266 191.7052 228.4714 15.88924440  1301
STARLINK-5315           
1 55309U 23010AS  23027.91667824 -.00915085  24870-3 -32101-2 0  9998
2 55309  70.0000  45.7597 0010689 195.1987 224.2113 15.88897913  1300
STARLINK-5309           
1 55310U 23010AT  23028.25001157 -.00892065  23588-3 -32249-2 0  9999
2 55310  69.9998  44.7952 0009680 203.5120 322.0961 15.88308225  1874
STARLINK-5312           
1 55311U 23010AU  23027.91667824 -.00914968  24866-3 -32084-2 0  9995
2 55311  70.0000  45.7594 0010652 195.6006 224.0695 15.88906644  1302
STARLINK-5296           
1 55312U 23010AV  23028.33334491 -.00902220  28141-3 -13818-2 0  9996
2 55312  69.9996  44.2105 0033589 156.0085  51.2619 16.02979924  1885
STARLINK-5313           
1 55313U 23010AW  23027.91667824 -.00914854  24867-3 -32030-2 0  9993
2 55313  70.0001  45.7583 0010788 195.5107 224.8529 15.88935281  1307
STARLINK-5305           
1 55314U 23010AX  23027.91667824 -.00914243  24842-3 -31957-2 0  9996
2 55314  70.0000  45.7571 0011168 192.6023 228.5885 15.88960129  1307
STARLINK-4623           
1 55315U 23010AY  23027.91667824 -.00916719  24923-3 -32353-2 0  9998
2 55315  70.0000  45.7640 0010655 195.5226 220.1331 15.88777837  1308
STARLINK-5257           
1 55316U 23010AZ  23028.33334491 -.00897847  00000+0 -41074-2 0  9993
2 55316  70.0000  44.6238 0008621 248.8178 335.0272 15.85477720  1886
STARLINK-5265           
1 55317U 23010BA  23027.91667824 -.00914469  24852-3 -31989-2 0  9995
2 55317  70.0000  45.7577 0010816 194.3591 226.5561 15.88951906  1306
STARLINK-5180           
1 55318U 23010BB  23027.91667824 -.00914057  24835-3 -31953-2 0  9991
2 55318  70.0000  45.7566 0010595 196.4383 224.9866 15.88969515  1306
STARLINK-5196           
1 55319U 23010BC  23027.91667824 -.00914293  24849-3 -31947-2 0  9992
2 55319  69.9999  45.7571 0010583 196.3311 225.3432 15.88978692  1304
FALCON 9 DEB            
1 55320U 23010BD  23028.20670910  .02713044  41557-5  75451-3 0  9994
2 55320  69.9829  44.3690 0039499 152.9114 207.4183 16.25271441  3060
FALCON 9 DEB            
1 55321U 23010BE  23028.14415697  .03039998  41488-5  84263-3 0  9991
2 55321  69.9830  44.5571 0039938 146.1866 214.1917 16.25256436  3056
FALCON 9 DEB            
1 55322U 23010BF  23028.25617875  .04763608  41773-5  73558-3 0  9991
2 55322  69.9827  44.1418 0033585 144.2319 216.1168 16.31847943  3071
